SCD 1                   
1 22490U 93009B   26189.37019666  .00000346  00000+0  43942-4 0  9990
2 22490  24.9699  76.7812 0041858   2.5054 159.8564 14.46126934764185
SCD 2                   
1 25504U 98060A   26189.42901341  .00000317  00000+0  37738-4 0  9991
2 25504  24.9961 301.1645 0016730 348.4570  70.0412 14.45533420463409
SENTINEL-1A             
1 39634U 14016A   26189.96747807 -.00000167  00000+0 -25668-4 0  9997
2 39634  98.1787 197.1820 0001408  87.5922 272.5439 14.59198675653192
SENTINEL-3A             
1 41335U 16011A   26189.95682812  .00000049  00000+0  38312-4 0  9995
2 41335  98.6239 257.0268 0001402  92.1258 268.0083 14.26738595541163
SCATSAT 1               
1 41790U 16059H   26189.78705136  .00000925  00000+0  12792-3 0  9994
2 41790  98.1179 253.7752 0054740 177.0507 183.1037 14.79576568104787
SENTINEL-2B             
1 42063U 17013A   26189.95574675 -.00000072  00000+0 -10744-4 0  9991
2 42063  98.5681 264.4227 0001199  90.9190 269.2130 14.30813650487754
SENTINEL-2C             
1 60989U 24157A   26189.78093829  .00000057  00000+0  38246-4 0  9991
2 60989  98.5685 264.2568 0000942  97.3692 262.7598 14.30814520 96078
SENTINEL-1C             
1 62261U 24235A   26190.00687368  .00000280  00000+0  69104-4 0  9992
2 62261  98.1821 197.0043 0001369  90.0308 270.1049 14.59197210 84599
SENTINEL-1D             
1 66315U 25251A   26189.90416844 -.00000012  00000+0  71157-5 0  9997
2 66315  98.1829 196.9580 0001362  90.0526 270.0830 14.59198118 35894
